[{"OBJECT_NAME":"ONEWEB-0230","OBJECT_ID":"2021-045C","EPOCH":"2026-03-14T15:00:42.484608","MEAN_MOTION":13.15547953,"ECCENTRICITY":0.00015183,"INCLINATION":87.8933,"RA_OF_ASC_NODE":278.0871,"ARG_OF_PERICENTER":89.3591,"MEAN_ANOMALY":270.7714,"EPHEMERIS_TYPE":0,"CLASSIFICATION_TYPE":"U","NORAD_CAT_ID":48769,"ELEMENT_SET_NO":999,"REV_AT_EPOCH":23223,"BSTAR":0.0003703439,"MEAN_MOTION_DOT":1.52e-6,"MEAN_MOTION_DDOT":0},{"OBJECT_NAME":"ONEWEB-0237","OBJECT_ID":"2021-045D","EPOCH":"2026-03-14T14:44:43.824768","MEAN_MOTION":13.15548059,"ECCENTRICITY":0.00017426,"INCLINATION":87.8932,"RA_OF_ASC_NODE":278.0909,"ARG_OF_PERICENTER":98.8943,"MEAN_ANOMALY":261.2384,"EPHEMERIS_TYPE":0,"CLASSIFICATION_TYPE":"U","NORAD_CAT_ID":48770,"ELEMENT_SET_NO":999,"REV_AT_EPOCH":23195,"BSTAR":0.00017800341,"MEAN_MOTION_DOT":8.0e-7,"MEAN_MOTION_DDOT":0},{"OBJECT_NAME":"ONEWEB-0235","OBJECT_ID":"2021-045E","EPOCH":"2026-03-14T14:08:13.192512","MEAN_MOTION":13.15548897,"ECCENTRICITY":0.00020184,"INCLINATION":87.8943,"RA_OF_ASC_NODE":278.0727,"ARG_OF_PERICENTER":101.742,"MEAN_ANOMALY":258.3937,"EPHEMERIS_TYPE":0,"CLASSIFICATION_TYPE":"U","NORAD_CAT_ID":48771,"ELEMENT_SET_NO":999,"REV_AT_EPOCH":23194,"BSTAR":-0.00029450043,"MEAN_MOTION_DOT":-9.8e-7,"MEAN_MOTION_DDOT":0},{"OBJECT_NAME":"ONEWEB-0242","OBJECT_ID":"2021-045F","EPOCH":"2026-03-14T13:59:05.438976","MEAN_MOTION":13.15548843,"ECCENTRICITY":0.00016259,"INCLINATION":87.8944,"RA_OF_ASC_NODE":278.0694,"ARG_OF_PERICENTER":96.5247,"MEAN_ANOMALY":263.6069,"EPHEMERIS_TYPE":0,"CLASSIFICATION_TYPE":"U","NORAD_CAT_ID":48772,"ELEMENT_SET_NO":999,"REV_AT_EPOCH":23198,"BSTAR":-0.00014975051,"MEAN_MOTION_DOT":-4.4e-7,"MEAN_MOTION_DDOT":0},{"OBJECT_NAME":"ONEWEB-0241","OBJECT_ID":"2021-045G","EPOCH":"2026-03-14T13:40:50.733696","MEAN_MOTION":13.15548223,"ECCENTRICITY":0.00020434,"INCLINATION":87.8933,"RA_OF_ASC_NODE":278.1012,"ARG_OF_PERICENTER":94.1142,"MEAN_ANOMALY":266.0222,"EPHEMERIS_TYPE":0,"CLASSIFICATION_TYPE":"U","NORAD_CAT_ID":48773,"ELEMENT_SET_NO":999,"REV_AT_EPOCH":23189,"BSTAR":7.1090571e-5,"MEAN_MOTION_DOT":4.0e-7,"MEAN_MOTION_DDOT":0},{"OBJECT_NAME":"ONEWEB-0243","OBJECT_ID":"2021-045H","EPOCH":"2026-03-14T14:26:27.674880","MEAN_MOTION":13.15550969,"ECCENTRICITY":0.00016394,"INCLINATION":87.8934,"RA_OF_ASC_NODE":278.1057,"ARG_OF_PERICENTER":110.5297,"MEAN_ANOMALY":249.6009,"EPHEMERIS_TYPE":0,"CLASSIFICATION_TYPE":"U","NORAD_CAT_ID":48774,"ELEMENT_SET_NO":999,"REV_AT_EPOCH":23192,"BSTAR":-0.00046049525,"MEAN_MOTION_DOT":-1.61e-6,"MEAN_MOTION_DDOT":0},{"OBJECT_NAME":"ONEWEB-0222","OBJECT_ID":"2021-045J","EPOCH":"2026-03-14T14:02:31.619616","MEAN_MOTION":13.15548568,"ECCENTRICITY":0.0001799,"INCLINATION":87.8942,"RA_OF_ASC_NODE":278.0695,"ARG_OF_PERICENTER":93.5082,"MEAN_ANOMALY":266.6254,"EPHEMERIS_TYPE":0,"CLASSIFICATION_TYPE":"U","NORAD_CAT_ID":48775,"ELEMENT_SET_NO":999,"REV_AT_EPOCH":23196,"BSTAR":-0.0001776869,"MEAN_MOTION_DOT":-5.4e-7,"MEAN_MOTION_DDOT":0},{"OBJECT_NAME":"ONEWEB-0244","OBJECT_ID":"2021-045K","EPOCH":"2026-03-14T14:40:10.113888","MEAN_MOTION":13.1554787,"ECCENTRICITY":0.00017045,"INCLINATION":87.894,"RA_OF_ASC_NODE":278.0548,"ARG_OF_PERICENTER":95.2619,"MEAN_ANOMALY":264.8706,"EPHEMERIS_TYPE":0,"CLASSIFICATION_TYPE":"U","NORAD_CAT_ID":48776,"ELEMENT_SET_NO":999,"REV_AT_EPOCH":23253,"BSTAR":1.570825e-5,"MEAN_MOTION_DOT":1.9e-7,"MEAN_MOTION_DDOT":0},{"OBJECT_NAME":"ONEWEB-0247","OBJECT_ID":"2021-045L","EPOCH":"2026-03-14T14:35:36.703680","MEAN_MOTION":13.15548203,"ECCENTRICITY":0.00020221,"INCLINATION":87.8932,"RA_OF_ASC_NODE":278.0994,"ARG_OF_PERICENTER":115.3121,"MEAN_ANOMALY":244.8219,"EPHEMERIS_TYPE":0,"CLASSIFICATION_TYPE":"U","NORAD_CAT_ID":48777,"ELEMENT_SET_NO":999,"REV_AT_EPOCH":23197,"BSTAR":-3.9770768e-5,"MEAN_MOTION_DOT":-2.0e-8,"MEAN_MOTION_DDOT":0},{"OBJECT_NAME":"ONEWEB-0245","OBJECT_ID":"2021-045M","EPOCH":"2026-03-14T14:28:45.226272","MEAN_MOTION":13.15548194,"ECCENTRICITY":0.00018588,"INCLINATION":87.8942,"RA_OF_ASC_NODE":278.0708,"ARG_OF_PERICENTER":89.4352,"MEAN_ANOMALY":270.6991,"EPHEMERIS_TYPE":0,"CLASSIFICATION_TYPE":"U","NORAD_CAT_ID":48778,"ELEMENT_SET_NO":999,"REV_AT_EPOCH":23194,"BSTAR":-0.00011528044,"MEAN_MOTION_DOT":-3.1e-7,"MEAN_MOTION_DDOT":0},{"OBJECT_NAME":"ONEWEB-0229","OBJECT_ID":"2021-045N","EPOCH":"2026-03-14T14:21:54.621504","MEAN_MOTION":13.15548303,"ECCENTRICITY":0.00016132,"INCLINATION":87.8944,"RA_OF_ASC_NODE":278.0702,"ARG_OF_PERICENTER":95.375,"MEAN_ANOMALY":264.7565,"EPHEMERIS_TYPE":0,"CLASSIFICATION_TYPE":"U","NORAD_CAT_ID":48779,"ELEMENT_SET_NO":999,"REV_AT_EPOCH":23197,"BSTAR":-0.00022355874,"MEAN_MOTION_DOT":-7.1e-7,"MEAN_MOTION_DDOT":0},{"OBJECT_NAME":"ONEWEB-0228","OBJECT_ID":"2021-045P","EPOCH":"2026-03-14T13:20:30.967872","MEAN_MOTION":13.15547435,"ECCENTRICITY":0.00016999,"INCLINATION":87.8942,"RA_OF_ASC_NODE":278.066,"ARG_OF_PERICENTER":93.4872,"MEAN_ANOMALY":266.6453,"EPHEMERIS_TYPE":0,"CLASSIFICATION_TYPE":"U","NORAD_CAT_ID":48780,"ELEMENT_SET_NO":999,"REV_AT_EPOCH":23188,"BSTAR":0.00029104827,"MEAN_MOTION_DOT":1.22e-6,"MEAN_MOTION_DDOT":0},{"OBJECT_NAME":"ONEWEB-0232","OBJECT_ID":"2021-045Q","EPOCH":"2026-03-14T14:33:19.029600","MEAN_MOTION":13.15547349,"ECCENTRICITY":0.00016632,"INCLINATION":87.8953,"RA_OF_ASC_NODE":278.0554,"ARG_OF_PERICENTER":91.4884,"MEAN_ANOMALY":268.6436,"EPHEMERIS_TYPE":0,"CLASSIFICATION_TYPE":"U","NORAD_CAT_ID":48781,"ELEMENT_SET_NO":999,"REV_AT_EPOCH":23221,"BSTAR":-8.7495088e-5,"MEAN_MOTION_DOT":-2.0e-7,"MEAN_MOTION_DDOT":0},{"OBJECT_NAME":"ONEWEB-0231","OBJECT_ID":"2021-045R","EPOCH":"2026-03-14T14:01:22.764000","MEAN_MOTION":13.15548412,"ECCENTRICITY":0.00018605,"INCLINATION":87.8935,"RA_OF_ASC_NODE":278.0858,"ARG_OF_PERICENTER":95.6714,"MEAN_ANOMALY":264.4628,"EPHEMERIS_TYPE":0,"CLASSIFICATION_TYPE":"U","NORAD_CAT_ID":48782,"ELEMENT_SET_NO":999,"REV_AT_EPOCH":23190,"BSTAR":-0.00027218566,"MEAN_MOTION_DOT":-9.0e-7,"MEAN_MOTION_DDOT":0},{"OBJECT_NAME":"ONEWEB-0234","OBJECT_ID":"2021-045S","EPOCH":"2026-03-14T14:55:54.658560","MEAN_MOTION":13.15550574,"ECCENTRICITY":0.00021605,"INCLINATION":87.8934,"RA_OF_ASC_NODE":278.0563,"ARG_OF_PERICENTER":70.0165,"MEAN_ANOMALY":290.1198,"EPHEMERIS_TYPE":0,"CLASSIFICATION_TYPE":"U","NORAD_CAT_ID":48783,"ELEMENT_SET_NO":999,"REV_AT_EPOCH":23204,"BSTAR":0.00033295311,"MEAN_MOTION_DOT":1.38e-6,"MEAN_MOTION_DDOT":0},{"OBJECT_NAME":"ONEWEB-0238","OBJECT_ID":"2021-045T","EPOCH":"2026-03-14T14:56:20.808384","MEAN_MOTION":13.15547455,"ECCENTRICITY":0.00018742,"INCLINATION":87.8933,"RA_OF_ASC_NODE":278.0497,"ARG_OF_PERICENTER":78.3691,"MEAN_ANOMALY":281.765,"EPHEMERIS_TYPE":0,"CLASSIFICATION_TYPE":"U","NORAD_CAT_ID":48784,"ELEMENT_SET_NO":999,"REV_AT_EPOCH":23194,"BSTAR":0.00029126614,"MEAN_MOTION_DOT":1.22e-6,"MEAN_MOTION_DDOT":0}]
