ONEWEB-0230             
1 48769U 21045C   26073.62549172  .00000152  00000+0  37034-3 0  9997
2 48769  87.8933 278.0871 0001518  89.3591 270.7714 13.15547953232230
ONEWEB-0237             
1 48770U 21045D   26073.61439612  .00000080  00000+0  17800-3 0  9994
2 48770  87.8932 278.0909 0001742  98.8943 261.2384 13.15548059231952
ONEWEB-0235             
1 48771U 21045E   26073.58904158 -.00000098  00000+0 -29450-3 0  9998
2 48771  87.8943 278.0727 0002018 101.7420 258.3937 13.15548897231944
ONEWEB-0242             
1 48772U 21045F   26073.58270184 -.00000044  00000+0 -14975-3 0  9991
2 48772  87.8944 278.0694 0001625  96.5247 263.6069 13.15548843231980
ONEWEB-0241             
1 48773U 21045G   26073.57003164  .00000040  00000+0  71091-4 0  9990
2 48773  87.8933 278.1012 0002043  94.1142 266.0222 13.15548223231897
ONEWEB-0243             
1 48774U 21045H   26073.60170920 -.00000161  00000+0 -46050-3 0  9992
2 48774  87.8934 278.1057 0001639 110.5297 249.6009 13.15550969231926
ONEWEB-0222             
1 48775U 21045J   26073.58508819 -.00000054  00000+0 -17769-3 0  9998
2 48775  87.8942 278.0695 0001799  93.5082 266.6254 13.15548568231969
ONEWEB-0244             
1 48776U 21045K   26073.61122817  .00000019  00000+0  15708-4 0  9994
2 48776  87.8940 278.0548 0001704  95.2619 264.8706 13.15547870232537
ONEWEB-0247             
1 48777U 21045L   26073.60806370 -.00000002  00000+0 -39771-4 0  9997
2 48777  87.8932 278.0994 0002022 115.3121 244.8219 13.15548203231975
ONEWEB-0245             
1 48778U 21045M   26073.60330123 -.00000031  00000+0 -11528-3 0  9997
2 48778  87.8942 278.0708 0001858  89.4352 270.6991 13.15548194231943
ONEWEB-0229             
1 48779U 21045N   26073.59854886 -.00000071  00000+0 -22356-3 0  9998
2 48779  87.8944 278.0702 0001613  95.3750 264.7565 13.15548303231973
ONEWEB-0228             
1 48780U 21045P   26073.55591398  .00000122  00000+0  29105-3 0  9996
2 48780  87.8942 278.0660 0001699  93.4872 266.6453 13.15547435231886
ONEWEB-0232             
1 48781U 21045Q   26073.60647025 -.00000020  00000+0 -87495-4 0  9998
2 48781  87.8953 278.0554 0001663  91.4884 268.6436 13.15547349232218
ONEWEB-0231             
1 48782U 21045R   26073.58429125 -.00000090  00000+0 -27219-3 0  9999
2 48782  87.8935 278.0858 0001860  95.6714 264.4628 13.15548412231907
ONEWEB-0234             
1 48783U 21045S   26073.62216040  .00000138  00000+0  33295-3 0  9997
2 48783  87.8934 278.0563 0002160  70.0165 290.1198 13.15550574232047
ONEWEB-0238             
1 48784U 21045T   26073.62246306  .00000122  00000+0  29127-3 0  9998
2 48784  87.8933 278.0497 0001874  78.3691 281.7650 13.15547455231940
